<?xml version="1.0" encoding="UTF-8"?>
<kml xmlns="http://www.opengis.net/kml/2.2"><Document><name>Abbotsford, BC</name><Style id="ff14b8a6"><IconStyle><color>ff14b8a6</color></IconStyle></Style><Placemark><name>Afterthoughts</name><description>[e] [cozy] - Known for cheesecake, not great coffee.</description><styleUrl>#ff14b8a6</styleUrl><Point><coordinates>-122.3238651,49.0497586,0</coordinates></Point></Placemark><Placemark><name>Birchwood Dairy Farm</name><description>$ [local] - ice cream and fresh cheese curds.</description><styleUrl>#ff14b8a6</styleUrl><Point><coordinates>-122.2045646,49.0232190,0</coordinates></Point></Placemark><Placemark><name>Edaleen Dairy</name><description>$ [local] - Worth the drive for chocolate/vanilla swirl soft serve</description><styleUrl>#ff14b8a6</styleUrl><Point><coordinates>-122.2645964,48.9952142,0</coordinates></Point></Placemark><Placemark><name>Field House Brewing Co.</name><description>$$ [cozy] [local] - great eats</description><styleUrl>#ff14b8a6</styleUrl><Point><coordinates>-122.2818030,49.0430090,0</coordinates></Point></Placemark><Placemark><name>Gian's</name><description>$$ - Great Indian cuisine, cheap lunch buffets.</description><styleUrl>#ff14b8a6</styleUrl><Point><coordinates>-122.3495698,49.0463808,0</coordinates></Point></Placemark><Placemark><name>Kingfishers Waterfront Bar &amp; Grill</name><description>[location] Not technically Abbotsford, but worth the drive for the good taps and great view.</description><styleUrl>#ff14b8a6</styleUrl><Point><coordinates>-122.5611250,49.1829820,0</coordinates></Point></Placemark><Placemark><name>Lepp Farm Market</name><description>$$ [local] - Cafe is inside of the farmers market for sandwiches and American brunch (weekends), great meats (try the bacon).</description><styleUrl>#ff14b8a6</styleUrl><Point><coordinates>-122.2843760,49.0822200,0</coordinates></Point></Placemark><Placemark><name>Oldhand Coffee</name><description>[a] [e] [cozy] - great owners, brews Bows&amp;Arrows (Victoria)</description><styleUrl>#ff14b8a6</styleUrl><Point><coordinates>-122.3046762,49.0508226,0</coordinates></Point></Placemark><Placemark><name>Ravens Brewing Company</name><description>[local] Solid beers, but only a small tasting room</description><styleUrl>#ff14b8a6</styleUrl><Point><coordinates>-122.3605183,49.0474816,0</coordinates></Point></Placemark><Placemark><name>Tony's Place Restaurant</name><description>$ - Great greasy spoon breakfast</description><styleUrl>#ff14b8a6</styleUrl><Point><coordinates>-122.3624348,49.0452835,0</coordinates></Point></Placemark></Document></kml>