<?xml version="1.0" encoding="UTF-8"?>
<kml xmlns="http://www.opengis.net/kml/2.2"><Document><name>Vancouver, BC</name><Style id="ff14b8a6"><IconStyle><color>ff14b8a6</color></IconStyle></Style><Style id="fff65c8b"><IconStyle><color>fff65c8b</color></IconStyle></Style><Placemark><name>33 Acres Brewing Company</name><description>[e] [local] [cozy] Good beer (evenings), good coffee (mornings).</description><styleUrl>#ff14b8a6</styleUrl><Point><coordinates>-123.1053363,49.2640091,0</coordinates></Point></Placemark><Placemark><name>49th Parallel Café &amp; Lucky's Doughnuts - Main Street</name><description>[Saved Places] saved 2015-02-07 · 2902 Main St, Vancouver, BC V5T 3G3, Canada</description><styleUrl>#fff65c8b</styleUrl><Point><coordinates>-123.1007927,49.2591539,0</coordinates></Point></Placemark><Placemark><name>49th Parallel Café &amp; Lucky's Doughnuts - West 4th</name><description>[Saved Places] saved 2021-07-22 · 2198 W 4th Ave, Vancouver, BC V6K 1N7, Canada</description><styleUrl>#fff65c8b</styleUrl><Point><coordinates>-123.1547852,49.2680170,0</coordinates></Point></Placemark><Placemark><name>49th Parallel Coffee Roasters &amp; Lucky's Doughnuts</name><description>[a] [e] [local] [cozy] - skip the brewed coffee</description><styleUrl>#ff14b8a6</styleUrl><Point><coordinates>-123.1229468,49.2860839,0</coordinates></Point></Placemark><Placemark><name>49th Parallel Coffee Roasters &amp; Lucky's Doughnuts</name><description>[a] [e] [local] - skip the brewed coffee</description><styleUrl>#ff14b8a6</styleUrl><Point><coordinates>-123.1546850,49.2679530,0</coordinates></Point></Placemark><Placemark><name>Amato Gelato Cafe</name><description>Over 200 flavours of gelato.</description><styleUrl>#ff14b8a6</styleUrl><Point><coordinates>-123.1030294,49.2700336,0</coordinates></Point></Placemark><Placemark><name>Brassneck Brewery</name><description>[local] - nano brewery, everything changes fast here.</description><styleUrl>#ff14b8a6</styleUrl><Point><coordinates>-123.1004459,49.2657634,0</coordinates></Point></Placemark><Placemark><name>Burgoo Mount Pleasant</name><description>$$ - Comfort Food</description><styleUrl>#ff14b8a6</styleUrl><Point><coordinates>-123.1009060,49.2576526,0</coordinates></Point></Placemark><Placemark><name>Bâtard Bakery</name><description>[Saved Places] saved 2018-01-09 · 3958 Fraser St, Vancouver, BC V5V 4E4, Canada</description><styleUrl>#fff65c8b</styleUrl><Point><coordinates>-123.0898996,49.2495565,0</coordinates></Point></Placemark><Placemark><name>Dogwood Brewing</name><description>[local] [cozy] Bad hours, great brews. Full organic with some board games on the side.</description><styleUrl>#ff14b8a6</styleUrl><Point><coordinates>-123.0814873,49.2098834,0</coordinates></Point></Placemark><Placemark><name>Earnest Ice Cream</name><styleUrl>#ff14b8a6</styleUrl><Point><coordinates>-123.0899278,49.2493283,0</coordinates></Point></Placemark><Placemark><name>Earnest Ice Cream</name><styleUrl>#ff14b8a6</styleUrl><Point><coordinates>-123.1029082,49.2689142,0</coordinates></Point></Placemark><Placemark><name>Elysian Coffee - Fifth &amp; Burrard</name><description>[Saved Places] saved 2015-02-07 · 1778 W 5th Ave, Vancouver, BC V6J 1P2, Canada</description><styleUrl>#fff65c8b</styleUrl><Point><coordinates>-123.1451590,49.2669854,0</coordinates></Point></Placemark><Placemark><name>Four Winds Brewing Co.</name><description>[cozy] [local] Tacos available at lunch.</description><styleUrl>#ff14b8a6</styleUrl><Point><coordinates>-123.0270420,49.1362520,0</coordinates></Point></Placemark><Placemark><name>Fuggles &amp; Warlock Craftworks</name><description>[local] [cozy] - A bit out of the way, but closes the distance between S&amp;O and Four Winds. Fun arcade games</description><styleUrl>#ff14b8a6</styleUrl><Point><coordinates>-123.0954340,49.1294360,0</coordinates></Point></Placemark><Placemark><name>Jam Cafe</name><description>Tiny breakfast spot</description><styleUrl>#ff14b8a6</styleUrl><Point><coordinates>-123.1096419,49.2802619,0</coordinates></Point></Placemark><Placemark><name>JINYA Ramen Bar - Vancouver</name><styleUrl>#ff14b8a6</styleUrl><Point><coordinates>-123.1179336,49.2803152,0</coordinates></Point></Placemark><Placemark><name>Koko Monk Chocolates</name><description>Blue cheese truffles and Turkish coffee</description><styleUrl>#ff14b8a6</styleUrl><Point><coordinates>-123.1473967,49.2708080,0</coordinates></Point></Placemark><Placemark><name>La Taqueria Pinche Taco</name><description>[Saved Places] saved 2013-12-22 · 322 W Hastings St, Vancouver, BC V6B 0P7, Canada</description><styleUrl>#fff65c8b</styleUrl><Point><coordinates>-123.1105432,49.2829570,0</coordinates></Point></Placemark><Placemark><name>Les Faux Bourgeois</name><description>$$$ - French</description><styleUrl>#ff14b8a6</styleUrl><Point><coordinates>-123.0896281,49.2572630,0</coordinates></Point></Placemark><Placemark><name>Main Street Brewing Co.</name><description>[local] - Always has cask beer on.</description><styleUrl>#ff14b8a6</styleUrl><Point><coordinates>-123.0992040,49.2646780,0</coordinates></Point></Placemark><Placemark><name>Matchstick Coffee</name><description>[a] [e] [local]</description><styleUrl>#ff14b8a6</styleUrl><Point><coordinates>-123.0902815,49.2572938,0</coordinates></Point></Placemark><Placemark><name>Matchstick Coffee Roasters</name><description>[a] [e] [local]</description><styleUrl>#ff14b8a6</styleUrl><Point><coordinates>-123.0992612,49.2788069,0</coordinates></Point></Placemark><Placemark><name>Meat &amp; Bread</name><description>$$ - The sandwich institution</description><styleUrl>#ff14b8a6</styleUrl><Point><coordinates>-123.1093590,49.2826215,0</coordinates></Point></Placemark><Placemark><name>Meat &amp; Bread</name><description>$$ - The sandwich institution</description><styleUrl>#ff14b8a6</styleUrl><Point><coordinates>-123.1188383,49.2873207,0</coordinates></Point></Placemark><Placemark><name>Mink Chocolates Cafe</name><description>[cozy] Out of the way spot for good hot chocolate and a fondue.</description><styleUrl>#ff14b8a6</styleUrl><Point><coordinates>-123.1152267,49.2866995,0</coordinates></Point></Placemark><Placemark><name>Nelson the Seagull</name><description>$ - Sourdough.</description><styleUrl>#ff14b8a6</styleUrl><Point><coordinates>-123.1045612,49.2821549,0</coordinates></Point></Placemark><Placemark><name>Nemesis Coffee Gastown</name><description>[a] [e] – better seating selection than revolver</description><styleUrl>#ff14b8a6</styleUrl><Point><coordinates>-123.1102905,49.2828080,0</coordinates></Point></Placemark><Placemark><name>Nero Belgian Waffle Bar</name><description>[Saved Places] saved 2013-12-22 · 1703 Robson St, Vancouver, BC V6G 1C8, Canada</description><styleUrl>#fff65c8b</styleUrl><Point><coordinates>-123.1339521,49.2906656,0</coordinates></Point></Placemark><Placemark><name>Osteria Savio Volpe</name><description>$$$$ - Reservation required.</description><styleUrl>#ff14b8a6</styleUrl><Point><coordinates>-123.0909434,49.2574425,0</coordinates></Point></Placemark><Placemark><name>Pallet Coffee Roasters - Semlin Drive</name><description>[Saved Places] saved 2015-02-07 · 323 Semlin Dr, Vancouver, BC V5L 4H9, Canada</description><styleUrl>#fff65c8b</styleUrl><Point><coordinates>-123.0639050,49.2817306,0</coordinates></Point></Placemark><Placemark><name>Parallel 49 Brewing Company</name><description>[local] - greasy, but cheapest flights in the city. always have a unique infusion on tap.</description><styleUrl>#ff14b8a6</styleUrl><Point><coordinates>-123.0643609,49.2838340,0</coordinates></Point></Placemark><Placemark><name>Pho Mien Tay</name><description>[Saved Places] saved 2022-04-28 · 550 Nelson St, Vancouver, BC V6B 1B4, Canada</description><styleUrl>#fff65c8b</styleUrl><Point><coordinates>-123.1218508,49.2783077,0</coordinates></Point></Placemark><Placemark><name>Prado Cafe</name><description>[Saved Places] saved 2015-02-07 · 1938 Commercial Dr, Vancouver, BC V5N 1J9, Canada</description><styleUrl>#fff65c8b</styleUrl><Point><coordinates>-123.0694445,49.2672222,0</coordinates></Point></Placemark><Placemark><name>Propaganda coffee</name><description>[Saved Places] saved 2015-06-25 · 209 E Pender St, Vancouver, BC V6A 1T8, Canada</description><styleUrl>#fff65c8b</styleUrl><Point><coordinates>-123.0990112,49.2804897,0</coordinates></Point></Placemark><Placemark><name>Revolver</name><description>[a] [e] - multi roaster (Barn, Phil&amp;Seb, and many more)</description><styleUrl>#ff14b8a6</styleUrl><Point><coordinates>-123.1094521,49.2831910,0</coordinates></Point></Placemark><Placemark><name>Sapperton Pensioners Community Hall</name><description>[Saved Places] saved 2015-05-30 · 318 Keary St, New Westminster, BC V3L 3L2, Canada</description><styleUrl>#fff65c8b</styleUrl><Point><coordinates>-122.8940410,49.2253592,0</coordinates></Point></Placemark><Placemark><name>Siegel's Bagels</name><description>$ - 24hr fresh bagels</description><styleUrl>#ff14b8a6</styleUrl><Point><coordinates>-123.1472865,49.2727165,0</coordinates></Point></Placemark><Placemark><name>St. Augustine's</name><description>[Saved Places] saved 2015-02-07 · 2360 Commercial Dr, Vancouver, BC V5N 4B7, Canada</description><styleUrl>#fff65c8b</styleUrl><Point><coordinates>-123.0695485,49.2637918,0</coordinates></Point></Placemark><Placemark><name>Steel &amp; Oak Brewing Co.</name><description>[local] - my favourite. Make sure to finish with a shandy.</description><styleUrl>#ff14b8a6</styleUrl><Point><coordinates>-122.9274274,49.2019541,0</coordinates></Point></Placemark><Placemark><name>Storm Brewing LTD.</name><description>[local] Sticky floors and crazy beers.</description><styleUrl>#ff14b8a6</styleUrl><Point><coordinates>-123.0702310,49.2820110,0</coordinates></Point></Placemark><Placemark><name>The Acorn Restaurant</name><description>$$$ - Fancy Vegetarian Digs</description><styleUrl>#ff14b8a6</styleUrl><Point><coordinates>-123.1012260,49.2495804,0</coordinates></Point></Placemark><Placemark><name>The Cider House</name><description>Vegan bites and extensive cider tap list</description><styleUrl>#ff14b8a6</styleUrl><Point><coordinates>-123.1548322,49.2715153,0</coordinates></Point></Placemark><Placemark><name>The Naam</name><description>$$ - Legendary 24hr Vegetarian Food.</description><styleUrl>#ff14b8a6</styleUrl><Point><coordinates>-123.1670365,49.2681884,0</coordinates></Point></Placemark><Placemark><name>Thierry</name><description>Chocolate cafe, open late.</description><styleUrl>#ff14b8a6</styleUrl><Point><coordinates>-123.1226430,49.2848810,0</coordinates></Point></Placemark><Placemark><name>Timbertrain Coffee Roasters</name><description>[a] [e] [local] - killer coldbrew</description><styleUrl>#ff14b8a6</styleUrl><Point><coordinates>-123.1094845,49.2838885,0</coordinates></Point></Placemark><Placemark><name>Twisted Fork</name><description>[Saved Places] saved 2013-12-22 · 213 Carrall St, Vancouver, BC V6B 4K7, Canada</description><styleUrl>#fff65c8b</styleUrl><Point><coordinates>-123.1044482,49.2831834,0</coordinates></Point></Placemark></Document></kml>