<?xml version="1.0" encoding="UTF-8"?>
<kml xmlns="http://www.opengis.net/kml/2.2"><Document><name>Victoria, BC</name><Style id="ff14b8a6"><IconStyle><color>ff14b8a6</color></IconStyle></Style><Style id="fff65c8b"><IconStyle><color>fff65c8b</color></IconStyle></Style><Placemark><name>2% Jazz Coffee</name><description>[e] – good for sitting</description><styleUrl>#ff14b8a6</styleUrl><Point><coordinates>-123.3636006,48.4295796,0</coordinates></Point></Placemark><Placemark><name>Agrius</name><description>Counterserve joint with fantastic bread and cute coffee</description><styleUrl>#ff14b8a6</styleUrl><Point><coordinates>-123.3633355,48.4262765,0</coordinates></Point></Placemark><Placemark><name>Blue Fox Cafe</name><description>[Saved Places] saved 2015-07-15 · 919 Fort St, Victoria, BC V8V 3K3, Canada</description><styleUrl>#fff65c8b</styleUrl><Point><coordinates>-123.3587526,48.4236846,0</coordinates></Point></Placemark><Placemark><name>Bows &amp; Arrows Coffee Roasters</name><description>[a] [e] – garage feel, and the original roastery so as fresh as can get</description><styleUrl>#ff14b8a6</styleUrl><Point><coordinates>-123.3739390,48.4402640,0</coordinates></Point></Placemark><Placemark><name>Bows Coffee Roasters</name><description>[Saved Places] saved 2015-07-15 · 483 Garbally Rd, Victoria, BC V8T 4T3, Canada</description><styleUrl>#fff65c8b</styleUrl><Point><coordinates>-123.3739356,48.4402666,0</coordinates></Point></Placemark><Placemark><name>Discovery Coffee</name><description>[a] [e]</description><styleUrl>#ff14b8a6</styleUrl><Point><coordinates>-123.3649672,48.4320996,0</coordinates></Point></Placemark><Placemark><name>Discovery Coffee</name><description>[a] [e] – donut popups on the weekends</description><styleUrl>#ff14b8a6</styleUrl><Point><coordinates>-123.3727700,48.4167555,0</coordinates></Point></Placemark><Placemark><name>Driftwood Brewery</name><styleUrl>#ff14b8a6</styleUrl><Point><coordinates>-123.3956909,48.4342335,0</coordinates></Point></Placemark><Placemark><name>Driftwood Brewing Company</name><description>[Saved Places] saved 2015-07-15 · 836 Viewfield Rd, Victoria, BC V9A 4V1, Canada</description><styleUrl>#fff65c8b</styleUrl><Point><coordinates>-123.3963734,48.4341055,0</coordinates></Point></Placemark><Placemark><name>Dumpling Drop</name><styleUrl>#ff14b8a6</styleUrl><Point><coordinates>-123.3675159,48.4287317,0</coordinates></Point></Placemark><Placemark><name>Habit Coffee</name><description>[e]</description><styleUrl>#ff14b8a6</styleUrl><Point><coordinates>-123.3616476,48.4262132,0</coordinates></Point></Placemark><Placemark><name>Hoyne Brewing Company</name><styleUrl>#ff14b8a6</styleUrl><Point><coordinates>-123.3735301,48.4370794,0</coordinates></Point></Placemark><Placemark><name>Jam Cafe</name><description>Big brunches that don't disappoint</description><styleUrl>#ff14b8a6</styleUrl><Point><coordinates>-123.3678617,48.4303107,0</coordinates></Point></Placemark><Placemark><name>John's Place Restaurant</name><description>The OG Brunch Place in Victoria; feel like a local!</description><styleUrl>#ff14b8a6</styleUrl><Point><coordinates>-123.3637292,48.4278417,0</coordinates></Point></Placemark><Placemark><name>Little June</name><description>[Saved Places] saved 2015-02-07 · 1301 Gladstone Ave, Victoria, BC V8R 1R9, Canada</description><styleUrl>#fff65c8b</styleUrl><Point><coordinates>-123.3450269,48.4304080,0</coordinates></Point></Placemark><Placemark><name>Phillips Brewing &amp; Malting Beer Shop</name><styleUrl>#ff14b8a6</styleUrl><Point><coordinates>-123.3673987,48.4320069,0</coordinates></Point></Placemark><Placemark><name>Spinnakers Gastro Brewpub &amp; GuestHouses</name><styleUrl>#ff14b8a6</styleUrl><Point><coordinates>-123.3850448,48.4290663,0</coordinates></Point></Placemark><Placemark><name>Swans Pub</name><description>Great Food, Great Tap-list. 4+ Ciders and 30+ Beers</description><styleUrl>#ff14b8a6</styleUrl><Point><coordinates>-123.3693825,48.4286637,0</coordinates></Point></Placemark><Placemark><name>Wah Lai Yuen Bakery + Restaurant 華麗園</name><description>Best Coconut Buns we've found, with a unique honey glaze. A bit pricey!</description><styleUrl>#ff14b8a6</styleUrl><Point><coordinates>-123.3675693,48.4295034,0</coordinates></Point></Placemark></Document></kml>