<?xml version="1.0" encoding="UTF-8"?>
<kml xmlns="http://www.opengis.net/kml/2.2"><Document><name>Seattle, WA</name><Style id="ff14b8a6"><IconStyle><color>ff14b8a6</color></IconStyle></Style><Style id="ff1673f9"><IconStyle><color>ff1673f9</color></IconStyle></Style><Style id="fff65c8b"><IconStyle><color>fff65c8b</color></IconStyle></Style><Placemark><name>a/stir</name><description>[Saved Places] saved 2015-05-22 · 818 E Pike St, Seattle, WA 98122, United States</description><styleUrl>#fff65c8b</styleUrl><Point><coordinates>-122.3211416,47.6142142,0</coordinates></Point></Placemark><Placemark><name>Ba Bar Capitol Hill</name><description>[Saved Places] saved 2015-05-22 · 550 12th Ave, Seattle, WA 98122, United States</description><styleUrl>#fff65c8b</styleUrl><Point><coordinates>-122.3164980,47.6070070,0</coordinates></Point></Placemark><Placemark><name>Ba Bar Restaurant</name><description>$$ - Vietnamese and great cocktails</description><styleUrl>#ff14b8a6</styleUrl><Point><coordinates>-122.3164980,47.6070070,0</coordinates></Point></Placemark><Placemark><name>Bathtub Gin &amp; Co.</name><description>$$ [cozy] - tiny and amazing space, with great cocktail (enter through back alley)</description><styleUrl>#ff14b8a6</styleUrl><Point><coordinates>-122.3450608,47.6131423,0</coordinates></Point></Placemark><Placemark><name>Canon</name><description>[location] Oldschool cocktail bar.</description><styleUrl>#ff14b8a6</styleUrl><Point><coordinates>-122.3165002,47.6112773,0</coordinates></Point></Placemark><Placemark><name>Capitol Cider</name><description>[local] Cider flights, &gt;20 kinds.</description><styleUrl>#ff14b8a6</styleUrl><Point><coordinates>-122.3211350,47.6142120,0</coordinates></Point></Placemark><Placemark><name>Casco Antiguo</name><description>[Saved Places] saved 2015-05-22 · 2102 7th Ave, Seattle, WA 98121, United States</description><styleUrl>#fff65c8b</styleUrl><Point><coordinates>-122.3386504,47.6162114,0</coordinates></Point></Placemark><Placemark><name>Chihuly Garden and Glass</name><description>[Want to go] 305 Harrison St, Seattle, WA 98109, USA</description><styleUrl>#ff1673f9</styleUrl><Point><coordinates>-122.3504476,47.6205599,0</coordinates></Point></Placemark><Placemark><name>Churchome - Downtown Seattle</name><description>[Saved Places] saved 2018-07-08 · 2700 1st Ave, Seattle, WA 98121, United States</description><styleUrl>#fff65c8b</styleUrl><Point><coordinates>-122.3508069,47.6161905,0</coordinates></Point></Placemark><Placemark><name>Cloudburst Brewing</name><description>[Saved Places] saved 2018-07-08 · 2116 Western Ave, Seattle, WA 98121, United States</description><styleUrl>#fff65c8b</styleUrl><Point><coordinates>-122.3450978,47.6117027,0</coordinates></Point></Placemark><Placemark><name>Damn the Weather</name><description>[Saved Places] saved 2015-05-22 · 116 1st Ave S, Seattle, WA 98104, United States</description><styleUrl>#fff65c8b</styleUrl><Point><coordinates>-122.3339510,47.6011220,0</coordinates></Point></Placemark><Placemark><name>Elm Coffee Roasters</name><description>[a] [e] [local] [cozy]</description><styleUrl>#ff14b8a6</styleUrl><Point><coordinates>-122.3310720,47.6001360,0</coordinates></Point></Placemark><Placemark><name>Elysian Capitol Hill Brewery</name><description>[local] The legends (thought now owned by AB)</description><styleUrl>#ff14b8a6</styleUrl><Point><coordinates>-122.3158939,47.6139394,0</coordinates></Point></Placemark><Placemark><name>Espresso Vivace Capitol Hill</name><description>[Saved Places] saved 2015-01-03 · 532 Broadway E, Seattle, WA 98102, United States</description><styleUrl>#fff65c8b</styleUrl><Point><coordinates>-122.3206193,47.6237833,0</coordinates></Point></Placemark><Placemark><name>HoneyHole Sandwiches</name><description>[Saved Places] saved 2017-05-27 · 703 E Pike St, Seattle, WA 98122, United States</description><styleUrl>#fff65c8b</styleUrl><Point><coordinates>-122.3231818,47.6139590,0</coordinates></Point></Placemark><Placemark><name>Mamnoon</name><styleUrl>#ff14b8a6</styleUrl><Point><coordinates>-122.3275910,47.6143850,0</coordinates></Point></Placemark><Placemark><name>Microsoft Building 35</name><description>[Saved Places] saved 2015-01-05 · 3940 159th Ave NE, Redmond, WA 98052, United States</description><styleUrl>#fff65c8b</styleUrl><Point><coordinates>-122.1257254,47.6451800,0</coordinates></Point></Placemark><Placemark><name>Momiji Capitol Hill</name><description>[Want to go] 1522 12th Ave, Seattle, WA 98122, USA</description><styleUrl>#ff1673f9</styleUrl><Point><coordinates>-122.3164889,47.6147972,0</coordinates></Point></Placemark><Placemark><name>Nacho Borracho</name><description>[Saved Places] saved 2015-05-22 · 209 Broadway E, Seattle, WA 98102, United States</description><styleUrl>#fff65c8b</styleUrl><Point><coordinates>-122.3212380,47.6201830,0</coordinates></Point></Placemark><Placemark><name>Nue</name><description>[Saved Places] saved 2015-05-22 · 1519 14th Ave, Seattle, WA 98122, United States</description><styleUrl>#fff65c8b</styleUrl><Point><coordinates>-122.3144481,47.6147255,0</coordinates></Point></Placemark><Placemark><name>Olympia Coffee Roasting</name><description>[Saved Places] saved 2018-07-08 · 3840 California Ave SW, Seattle, WA 98116, United States</description><styleUrl>#fff65c8b</styleUrl><Point><coordinates>-122.3865480,47.5694064,0</coordinates></Point></Placemark><Placemark><name>Outer Planet Brewing</name><description>[Saved Places] saved 2015-05-22 · 1812 12th Ave #100, Seattle, WA 98122, United States</description><styleUrl>#fff65c8b</styleUrl><Point><coordinates>-122.3166308,47.6180259,0</coordinates></Point></Placemark><Placemark><name>Outer Planet Craft Brewing</name><description>[local] - nano brewery with unique small batches.</description><styleUrl>#ff14b8a6</styleUrl><Point><coordinates>-122.3166198,47.6180260,0</coordinates></Point></Placemark><Placemark><name>Pacific Place</name><description>[Saved Places] saved 2015-07-02 · 600 Pine St, Seattle, WA 98101, United States</description><styleUrl>#fff65c8b</styleUrl><Point><coordinates>-122.3352591,47.6133720,0</coordinates></Point></Placemark><Placemark><name>Pine Box</name><description>[local]</description><styleUrl>#ff14b8a6</styleUrl><Point><coordinates>-122.3276710,47.6154916,0</coordinates></Point></Placemark><Placemark><name>Porchlight Coffee &amp; Records</name><description>[Saved Places] saved 2015-05-22 · 1517 14th Ave, Seattle, WA 98122, United States</description><styleUrl>#fff65c8b</styleUrl><Point><coordinates>-122.3144209,47.6146524,0</coordinates></Point></Placemark><Placemark><name>Radiator Whiskey</name><description>[Saved Places] saved 2015-05-22 · 94 Pike St #30, Seattle, WA 98101, United States</description><styleUrl>#fff65c8b</styleUrl><Point><coordinates>-122.3405592,47.6089940,0</coordinates></Point></Placemark><Placemark><name>Rancho Bravo Tacos</name><description>$ - late night tacos.</description><styleUrl>#ff14b8a6</styleUrl><Point><coordinates>-122.3189610,47.6151060,0</coordinates></Point></Placemark><Placemark><name>Seattle, Washington King Street Station</name><description>[Saved Places] saved 2018-07-08 · 303 S Jackson St, Seattle, WA 98104, United States</description><styleUrl>#fff65c8b</styleUrl><Point><coordinates>-122.3299086,47.5983889,0</coordinates></Point></Placemark><Placemark><name>Spinasse</name><description>[Saved Places] saved 2015-05-22 · 1531 14th Ave, Seattle, WA 98122, United States</description><styleUrl>#fff65c8b</styleUrl><Point><coordinates>-122.3144780,47.6150800,0</coordinates></Point></Placemark><Placemark><name>Starbucks</name><description>[Saved Places] saved 2018-07-08 · 2326 1st Ave, Seattle, WA 98121, United States</description><styleUrl>#fff65c8b</styleUrl><Point><coordinates>-122.3472500,47.6139950,0</coordinates></Point></Placemark><Placemark><name>Stumbling Monk</name><description>[Saved Places] saved 2015-01-03 · 1635 E Olive Wy, Seattle, WA 98102, United States</description><styleUrl>#fff65c8b</styleUrl><Point><coordinates>-122.3241762,47.6194321,0</coordinates></Point></Placemark><Placemark><name>Stumptown Coffee Roasters</name><description>[a] [e] Portland legends.</description><styleUrl>#ff14b8a6</styleUrl><Point><coordinates>-122.3171070,47.6120590,0</coordinates></Point></Placemark><Placemark><name>Terra Plata</name><description>[Saved Places] saved 2015-05-22 · 1501 Melrose Ave, Seattle, WA 98122, United States</description><styleUrl>#fff65c8b</styleUrl><Point><coordinates>-122.3280831,47.6143982,0</coordinates></Point></Placemark><Placemark><name>The Good Coffee Company</name><description>[Saved Places] saved 2015-05-22 · 818 Post Ave, Seattle, WA 98104, United States</description><styleUrl>#fff65c8b</styleUrl><Point><coordinates>-122.3357275,47.6035257,0</coordinates></Point></Placemark><Placemark><name>The Wandering Goose</name><description>$$ - Great breakfast</description><styleUrl>#ff14b8a6</styleUrl><Point><coordinates>-122.3128296,47.6221067,0</coordinates></Point></Placemark><Placemark><name>The Westin Seattle</name><description>[Saved Places] saved 2015-07-02 · 1900 5th Ave, Seattle, WA 98101, United States</description><styleUrl>#fff65c8b</styleUrl><Point><coordinates>-122.3381933,47.6136997,0</coordinates></Point></Placemark><Placemark><name>Victrola Coffee Roasters</name><description>[Saved Places] saved 2015-05-22 · 411 15th Ave E, Seattle, WA 98112, United States</description><styleUrl>#fff65c8b</styleUrl><Point><coordinates>-122.3128080,47.6223738,0</coordinates></Point></Placemark></Document></kml>