<?xml version="1.0" encoding="UTF-8"?>
<kml xmlns="http://www.opengis.net/kml/2.2"><Document><name>San Francisco Bay, CA</name><Style id="ff1673f9"><IconStyle><color>ff1673f9</color></IconStyle></Style><Style id="fff65c8b"><IconStyle><color>fff65c8b</color></IconStyle></Style><Placemark><name>Black Cat Jazz Supper Club</name><description>[Saved Places] saved 2017-04-18 · 400 Eddy St, San Francisco, CA 94109, United States</description><styleUrl>#fff65c8b</styleUrl><Point><coordinates>-122.4144611,37.7838333,0</coordinates></Point></Placemark><Placemark><name>Blondie's Bar</name><description>[Saved Places] saved 2025-03-12 · 540 Valencia St, San Francisco, CA 94110, United States</description><styleUrl>#fff65c8b</styleUrl><Point><coordinates>-122.4221214,37.7642160,0</coordinates></Point></Placemark><Placemark><name>Boochmania</name><description>[Want to go] 685 Harrison St, San Francisco, CA 94107, USA</description><styleUrl>#ff1673f9</styleUrl><Point><coordinates>-122.3967967,37.7826858,0</coordinates></Point></Placemark><Placemark><name>Bourbon &amp; Branch</name><description>[Saved Places] saved 2017-04-18 · 501 Jones St, San Francisco, CA 94102, United States</description><styleUrl>#fff65c8b</styleUrl><Point><coordinates>-122.4132059,37.7860052,0</coordinates></Point></Placemark><Placemark><name>Cafe Du Nord</name><description>[Saved Places] saved 2017-04-18 · 2174 Market St, San Francisco, CA 94114, United States</description><styleUrl>#fff65c8b</styleUrl><Point><coordinates>-122.4303843,37.7667469,0</coordinates></Point></Placemark><Placemark><name>CHAPEL COFFEE</name><description>[Saved Places] saved 2017-04-19 · 670 Commercial St, San Francisco, CA 94111, United States</description><styleUrl>#fff65c8b</styleUrl><Point><coordinates>-122.4042614,37.7942424,0</coordinates></Point></Placemark><Placemark><name>Drake's Dealership</name><description>[Want to go] 2325 Broadway, Oakland, CA 94612, USA</description><styleUrl>#ff1673f9</styleUrl><Point><coordinates>-122.2667536,37.8127449,0</coordinates></Point></Placemark><Placemark><name>Fort Point Valencia</name><description>[Want to go] 742 Valencia St, San Francisco, CA 94110, USA</description><styleUrl>#ff1673f9</styleUrl><Point><coordinates>-122.4217657,37.7609609,0</coordinates></Point></Placemark><Placemark><name>Four Barrel Coffee</name><description>[Saved Places] saved 2017-04-19 · 375 Valencia St, San Francisco, CA 94103, United States</description><styleUrl>#fff65c8b</styleUrl><Point><coordinates>-122.4217806,37.7670234,0</coordinates></Point></Placemark><Placemark><name>Golden Star Vietnamese Restaurant</name><description>[Saved Places] saved 2017-04-19 · 11 Walter U Lum Pl, San Francisco, CA 94108, United States</description><styleUrl>#fff65c8b</styleUrl><Point><coordinates>-122.4058259,37.7945329,0</coordinates></Point></Placemark><Placemark><name>Hoi Polloi Brewing Taproom and Beat Lounge</name><description>[Saved Places] saved 2017-04-15 · 1763 Alcatraz Ave, Berkeley, CA 94703, United States</description><styleUrl>#fff65c8b</styleUrl><Point><coordinates>-122.2721496,37.8488142,0</coordinates></Point></Placemark><Placemark><name>Little Star Pizza</name><description>[Saved Places] saved 2017-04-18 · 400 Valencia St, San Francisco, CA 94103, United States</description><styleUrl>#fff65c8b</styleUrl><Point><coordinates>-122.4222443,37.7664142,0</coordinates></Point></Placemark><Placemark><name>Media Noche</name><description>[Saved Places] saved 2017-04-18 · 3465 19th St, San Francisco, CA 94110, United States</description><styleUrl>#fff65c8b</styleUrl><Point><coordinates>-122.4207472,37.7599111,0</coordinates></Point></Placemark><Placemark><name>Mezcalito</name><description>[Saved Places] saved 2017-04-18 · 2323 Polk St, San Francisco, CA 94109, United States</description><styleUrl>#fff65c8b</styleUrl><Point><coordinates>-122.4224791,37.7981612,0</coordinates></Point></Placemark><Placemark><name>Miss Saigon</name><description>[Saved Places] saved 2017-04-19 · 100 6th St, San Francisco, CA 94103, United States</description><styleUrl>#fff65c8b</styleUrl><Point><coordinates>-122.4087210,37.7807802,0</coordinates></Point></Placemark><Placemark><name>Nopa</name><description>[Saved Places] saved 2017-04-18 · 560 Divisadero St, San Francisco, CA 94117, United States</description><styleUrl>#fff65c8b</styleUrl><Point><coordinates>-122.4375083,37.7749009,0</coordinates></Point></Placemark><Placemark><name>Pacific Cocktail Haven</name><description>[Saved Places] saved 2017-04-18 · 550 Sutter St, San Francisco, CA 94108, United States</description><styleUrl>#fff65c8b</styleUrl><Point><coordinates>-122.4095652,37.7894294,0</coordinates></Point></Placemark><Placemark><name>Radhaus</name><description>[Want to go] 2 Marina Blvd Bldg A, San Francisco, CA 94123, USA</description><styleUrl>#ff1673f9</styleUrl><Point><coordinates>-122.4321771,37.8064484,0</coordinates></Point></Placemark><Placemark><name>Ritual Coffee Roasters</name><description>[Saved Places] saved 2017-04-09 · 1026 Valencia St, San Francisco, CA 94110, United States</description><styleUrl>#fff65c8b</styleUrl><Point><coordinates>-122.4214111,37.7564253,0</coordinates></Point></Placemark><Placemark><name>Saint Frank Coffee</name><description>[Saved Places] saved 2017-04-09 · 2340 Polk St, San Francisco, CA 94109, United States</description><styleUrl>#fff65c8b</styleUrl><Point><coordinates>-122.4220775,37.7984797,0</coordinates></Point></Placemark><Placemark><name>Sante Adairius Rustic Ales Oakland Arbor</name><description>[Saved Places] saved 2025-10-31 · 460 8th St, Oakland, CA 94607, United States</description><styleUrl>#fff65c8b</styleUrl><Point><coordinates>-122.2741696,37.8004843,0</coordinates></Point></Placemark><Placemark><name>Sightglass Coffee</name><description>[Saved Places] saved 2017-04-18 · 270 7th St, San Francisco, CA 94103, United States</description><styleUrl>#fff65c8b</styleUrl><Point><coordinates>-122.4084543,37.7770356,0</coordinates></Point></Placemark><Placemark><name>Stable Cafe</name><description>[Saved Places] saved 2017-04-18 · 2128 Folsom St, San Francisco, CA 94110, United States</description><styleUrl>#fff65c8b</styleUrl><Point><coordinates>-122.4153583,37.7632250,0</coordinates></Point></Placemark><Placemark><name>Tartine Bakery</name><description>[Saved Places] saved 2017-04-10 · 600 Guerrero St, San Francisco, CA 94110, United States</description><styleUrl>#fff65c8b</styleUrl><Point><coordinates>-122.4240821,37.7614347,0</coordinates></Point></Placemark><Placemark><name>Tartine Manufactory</name><description>[Saved Places] saved 2017-04-10 · 595 Alabama St, San Francisco, CA 94110, United States</description><styleUrl>#fff65c8b</styleUrl><Point><coordinates>-122.4118972,37.7618278,0</coordinates></Point></Placemark><Placemark><name>The Coffee Lama</name><description>[Saved Places] saved 2017-04-10 · 1300 Haight St, San Francisco, CA 94117, United States</description><styleUrl>#fff65c8b</styleUrl><Point><coordinates>-122.4438393,37.7705531,0</coordinates></Point></Placemark><Placemark><name>The Crown: Royal Coffee Lab &amp; Tasting Room</name><description>[Want to go] 2523 Broadway, Oakland, CA 94612, USA</description><styleUrl>#ff1673f9</styleUrl><Point><coordinates>-122.2651488,37.8144975,0</coordinates></Point></Placemark><Placemark><name>Top Dog</name><description>[Saved Places] saved 2017-04-16 · 2160 Center St, Berkeley, CA 94704, United States</description><styleUrl>#fff65c8b</styleUrl><Point><coordinates>-122.2663231,37.8704245,0</coordinates></Point></Placemark><Placemark><name>Toronado</name><description>[Saved Places] saved 2017-04-01 · 547 Haight St, San Francisco, CA 94117, United States</description><styleUrl>#fff65c8b</styleUrl><Point><coordinates>-122.4312295,37.7719042,0</coordinates></Point></Placemark><Placemark><name>Verdi Club</name><description>[Saved Places] saved 2023-09-13 · 2424 Mariposa St, San Francisco, CA 94110, United States</description><styleUrl>#fff65c8b</styleUrl><Point><coordinates>-122.4079456,37.7633755,0</coordinates></Point></Placemark><Placemark><name>Verve Coffee Roasters</name><description>[Saved Places] saved 2017-12-02 · 2101 Market St, San Francisco, CA 94114, United States</description><styleUrl>#fff65c8b</styleUrl><Point><coordinates>-122.4290973,37.7671579,0</coordinates></Point></Placemark><Placemark><name>Wise Sons Jewish Deli</name><description>[Saved Places] saved 2017-04-10 · 3838 Telegraph Ave, Oakland, CA 94609, United States</description><styleUrl>#fff65c8b</styleUrl><Point><coordinates>-122.2645150,37.8277620,0</coordinates></Point></Placemark><Placemark><name>Woods Cervecería</name><description>[Saved Places] saved 2017-04-01 · 3801 18th St, San Francisco, CA 94114, United States</description><styleUrl>#fff65c8b</styleUrl><Point><coordinates>-122.4285425,37.7611469,0</coordinates></Point></Placemark><Placemark><name>Wrecking Ball Coffee Roasters</name><description>[Saved Places] saved 2017-04-16 · 2271 Union St, San Francisco, CA 94123, United States</description><styleUrl>#fff65c8b</styleUrl><Point><coordinates>-122.4366404,37.7968015,0</coordinates></Point></Placemark><Placemark><name>Zuni Café</name><description>[Saved Places] saved 2017-04-18 · 1658 Market St, San Francisco, CA 94102, United States</description><styleUrl>#fff65c8b</styleUrl><Point><coordinates>-122.4216080,37.7736000,0</coordinates></Point></Placemark></Document></kml>