<?xml version="1.0" encoding="UTF-8"?>
<kml xmlns="http://www.opengis.net/kml/2.2"><Document><name>Toronto, ON</name><Style id="ff14b8a6"><IconStyle><color>ff14b8a6</color></IconStyle></Style><Style id="ff1673f9"><IconStyle><color>ff1673f9</color></IconStyle></Style><Style id="fff65c8b"><IconStyle><color>fff65c8b</color></IconStyle></Style><Placemark><name>7Numbers</name><styleUrl>#ff14b8a6</styleUrl><Point><coordinates>-79.3538370,43.6770320,0</coordinates></Point></Placemark><Placemark><name>Annalakshmi Stoney Creek - South Indian Vegetarian Restaurant</name><description>[Want to go] 518 Centennial Pkwy N Unit E4, Hamilton, ON L8E 0G2, Canada</description><styleUrl>#ff1673f9</styleUrl><Point><coordinates>-79.7558250,43.2419873,0</coordinates></Point></Placemark><Placemark><name>Arvo Coffee</name><description>[a] [e]</description><styleUrl>#ff14b8a6</styleUrl><Point><coordinates>-79.3611950,43.6499060,0</coordinates></Point></Placemark><Placemark><name>Assembly Chef's Hall</name><description>Collection of restaurants to allow everyone to find what they're craving (ramen, tacos, fried chicken, etc.).</description><styleUrl>#ff14b8a6</styleUrl><Point><coordinates>-79.3837950,43.6503520,0</coordinates></Point></Placemark><Placemark><name>Avling Kitchen and Brewery</name><styleUrl>#ff14b8a6</styleUrl><Point><coordinates>-79.3381070,43.6616010,0</coordinates></Point></Placemark><Placemark><name>Bagel Time</name><description>Montréal-style bagels.  We recommend everything and onion flavours.</description><styleUrl>#ff14b8a6</styleUrl><Point><coordinates>-79.3468880,43.6787840,0</coordinates></Point></Placemark><Placemark><name>Bellwoods Brewery</name><styleUrl>#ff14b8a6</styleUrl><Point><coordinates>-79.4200800,43.6470690,0</coordinates></Point></Placemark><Placemark><name>Blood Brothers Brewing</name><styleUrl>#ff14b8a6</styleUrl><Point><coordinates>-79.4361930,43.6698490,0</coordinates></Point></Placemark><Placemark><name>Boxcar Social</name><description>[a] [e] [cozy] Coffeeshop/bar, and Sarah's favourite place to work thanks to the beautiful waterfront views.</description><styleUrl>#ff14b8a6</styleUrl><Point><coordinates>-79.3827180,43.6384830,0</coordinates></Point></Placemark><Placemark><name>Boxcar Social</name><description>[a] [e] [cozy] Coffeeshop/bar that Sarah enjoys working in––they have oat milk lattes!</description><styleUrl>#ff14b8a6</styleUrl><Point><coordinates>-79.3822060,43.6505120,0</coordinates></Point></Placemark><Placemark><name>Burdock Brewery</name><styleUrl>#ff14b8a6</styleUrl><Point><coordinates>-79.4377540,43.6594920,0</coordinates></Point></Placemark><Placemark><name>Charminar Indian Cuisine | Scarborough</name><description>[Want to go] 925 Warden Ave. Unit 2, Scarborough, ON M1L 4C5, Canada</description><styleUrl>#ff1673f9</styleUrl><Point><coordinates>-79.2883761,43.7310400,0</coordinates></Point></Placemark><Placemark><name>Completo</name><description>Chilean-style poutine. Great hole-in-the-wall location.</description><styleUrl>#ff14b8a6</styleUrl><Point><coordinates>-79.3340000,43.6626080,0</coordinates></Point></Placemark><Placemark><name>Descendant Detroit Style Pizza</name><description>The best Detroit-style pizza you can find outside of Detroit. Service isn't always great, so consider take-out.</description><styleUrl>#ff14b8a6</styleUrl><Point><coordinates>-79.3324040,43.6628890,0</coordinates></Point></Placemark><Placemark><name>Dim Sum King</name><styleUrl>#ff14b8a6</styleUrl><Point><coordinates>-79.3954450,43.6533120,0</coordinates></Point></Placemark><Placemark><name>Dolce Gelato</name><description>Tons of flavors, delicious gelato.</description><styleUrl>#ff14b8a6</styleUrl><Point><coordinates>-79.3511930,43.6778520,0</coordinates></Point></Placemark><Placemark><name>Fahrenheit Coffee</name><description>[a] [e]</description><styleUrl>#ff14b8a6</styleUrl><Point><coordinates>-79.3839520,43.6502910,0</coordinates></Point></Placemark><Placemark><name>Fahrenheit Coffee</name><description>[a] [e]</description><styleUrl>#ff14b8a6</styleUrl><Point><coordinates>-79.3729350,43.6524090,0</coordinates></Point></Placemark><Placemark><name>Fat Pasha</name><styleUrl>#ff14b8a6</styleUrl><Point><coordinates>-79.4117560,43.6738450,0</coordinates></Point></Placemark><Placemark><name>Fiorentina</name><styleUrl>#ff14b8a6</styleUrl><Point><coordinates>-79.3500980,43.6776380,0</coordinates></Point></Placemark><Placemark><name>Halo Brewery</name><styleUrl>#ff14b8a6</styleUrl><Point><coordinates>-79.4464640,43.6617910,0</coordinates></Point></Placemark><Placemark><name>Henderson Brewing co</name><styleUrl>#ff14b8a6</styleUrl><Point><coordinates>-79.4452630,43.6535660,0</coordinates></Point></Placemark><Placemark><name>Indie Alehouse</name><styleUrl>#ff14b8a6</styleUrl><Point><coordinates>-79.4653390,43.6655510,0</coordinates></Point></Placemark><Placemark><name>Juicy Dumpling</name><styleUrl>#ff14b8a6</styleUrl><Point><coordinates>-79.3987320,43.6526360,0</coordinates></Point></Placemark><Placemark><name>Left Field Brewery</name><styleUrl>#ff14b8a6</styleUrl><Point><coordinates>-79.3304610,43.6737840,0</coordinates></Point></Placemark><Placemark><name>Library Coffee</name><description>[Saved Places] saved 2018-07-10 · 281 Dundas St W, Toronto, ON M5T 1G1, Canada</description><styleUrl>#fff65c8b</styleUrl><Point><coordinates>-79.3908424,43.6543249,0</coordinates></Point></Placemark><Placemark><name>louf</name><description>[2025-07 Hantke-Klanderman] 501 Davenport Rd, Toronto, ON M4V 1B8, Canada</description><styleUrl>#ff1673f9</styleUrl><Point><coordinates>-79.4070130,43.6774976,0</coordinates></Point></Placemark><Placemark><name>Madrina Bar y Tapas</name><description>Great classic tapas with a decent drink menu, all located in the hip-and-happening Distillery District.</description><styleUrl>#ff14b8a6</styleUrl><Point><coordinates>-79.3596480,43.6497580,0</coordinates></Point></Placemark><Placemark><name>Maha's Brunch</name><styleUrl>#ff14b8a6</styleUrl><Point><coordinates>-79.3285238,43.6717256,0</coordinates></Point></Placemark><Placemark><name>Messini Authentic Gyros</name><description>Cheap, delicious gyros.</description><styleUrl>#ff14b8a6</styleUrl><Point><coordinates>-79.3504860,43.6777000,0</coordinates></Point></Placemark><Placemark><name>Momo Ghar</name><description>[2025-07 Hantke-Klanderman] 568 Parliament St, Toronto, ON M4X 1P6, Canada</description><styleUrl>#ff1673f9</styleUrl><Point><coordinates>-79.3694343,43.6674654,0</coordinates></Point></Placemark><Placemark><name>Othership Yorkville</name><description>[Saved Places] saved 2024-03-09 · 110 Bloor St W, Toronto, ON M5S 2W7, Canada</description><styleUrl>#fff65c8b</styleUrl><Point><coordinates>-79.3922208,43.6694504,0</coordinates></Point></Placemark><Placemark><name>PAI</name><styleUrl>#ff14b8a6</styleUrl><Point><coordinates>-79.3888170,43.6478300,0</coordinates></Point></Placemark><Placemark><name>Petit Dejeuner</name><styleUrl>#ff14b8a6</styleUrl><Point><coordinates>-79.3702610,43.6506560,0</coordinates></Point></Placemark><Placemark><name>Pilot Coffee Roasters</name><description>Only open on weekdays!</description><styleUrl>#ff14b8a6</styleUrl><Point><coordinates>-79.3299930,43.6737620,0</coordinates></Point></Placemark><Placemark><name>Pilot Coffee Technical Services</name><description>[2025-07 Hantke-Klanderman] Friday
60 Wagstaff Dr, Toronto, ON M4L 3W9, Canada</description><styleUrl>#ff1673f9</styleUrl><Point><coordinates>-79.3298718,43.6739450,0</coordinates></Point></Placemark><Placemark><name>Pizzeria Libretto</name><description>One of our favourite neighbourhood Italian-style pizza places with both gluten-free and vegan options.</description><styleUrl>#ff14b8a6</styleUrl><Point><coordinates>-79.3476670,43.6785470,0</coordinates></Point></Placemark><Placemark><name>PLANTA Toronto - Yorkville</name><description>[Saved Places] saved 2024-03-09 · 1221 Bay St., Toronto, ON M5R 3P5, Canada</description><styleUrl>#fff65c8b</styleUrl><Point><coordinates>-79.3894544,43.6702130,0</coordinates></Point></Placemark><Placemark><name>Richmond Station</name><styleUrl>#ff14b8a6</styleUrl><Point><coordinates>-79.3794700,43.6514640,0</coordinates></Point></Placemark><Placemark><name>RIVERSIDE BURGERS</name><description>[Want to go] 688 Queen St E, Toronto, ON M4M 1G9, Canada</description><styleUrl>#ff1673f9</styleUrl><Point><coordinates>-79.3507030,43.6588413,0</coordinates></Point></Placemark><Placemark><name>Rorschach Brewing Co.</name><styleUrl>#ff14b8a6</styleUrl><Point><coordinates>-79.3199300,43.6635450,0</coordinates></Point></Placemark><Placemark><name>Roti Cuisine Of India</name><styleUrl>#ff14b8a6</styleUrl><Point><coordinates>-79.4084170,43.6748050,0</coordinates></Point></Placemark><Placemark><name>Sam James Coffee Bar - PATH</name><description>[e]</description><styleUrl>#ff14b8a6</styleUrl><Point><coordinates>-79.3840660,43.6480330,0</coordinates></Point></Placemark><Placemark><name>Sam James Coffee Bar - Toronto Street</name><description>[e]</description><styleUrl>#ff14b8a6</styleUrl><Point><coordinates>-79.3760000,43.6503250,0</coordinates></Point></Placemark><Placemark><name>Samara Kitchen</name><description>[Saved Places] saved 2019-12-08 · 6033 Shawson Dr Unit 13, Mississauga, ON L5T 1H8, Canada</description><styleUrl>#fff65c8b</styleUrl><Point><coordinates>-79.6558796,43.6493302,0</coordinates></Point></Placemark><Placemark><name>Simone's Caribbean Restaurant</name><description>If you've never had a Caribbean roti, try one here and it'll change your life.  Recommended as post-marathon food.</description><styleUrl>#ff14b8a6</styleUrl><Point><coordinates>-79.3465580,43.6787810,0</coordinates></Point></Placemark><Placemark><name>Strange Love Coffee</name><description>[a] [e]</description><styleUrl>#ff14b8a6</styleUrl><Point><coordinates>-79.3949910,43.6464650,0</coordinates></Point></Placemark><Placemark><name>Strange Love Coffee</name><description>[a] [e]</description><styleUrl>#ff14b8a6</styleUrl><Point><coordinates>-79.4030580,43.6472530,0</coordinates></Point></Placemark><Placemark><name>Sud Forno</name><description>Try the Bombalones!</description><styleUrl>#ff14b8a6</styleUrl><Point><coordinates>-79.3787850,43.6509160,0</coordinates></Point></Placemark><Placemark><name>Takht-e Tavoos Restaurant</name><styleUrl>#ff14b8a6</styleUrl><Point><coordinates>-79.4331020,43.6525490,0</coordinates></Point></Placemark><Placemark><name>Terroni</name><styleUrl>#ff14b8a6</styleUrl><Point><coordinates>-79.3756850,43.6509160,0</coordinates></Point></Placemark><Placemark><name>The Alley</name><description>For bubble tea lovers looking for something a little different, we recommend the Brown Sugar Deerioca.</description><styleUrl>#ff14b8a6</styleUrl><Point><coordinates>-79.3852190,43.6658870,0</coordinates></Point></Placemark><Placemark><name>The Auld Spot Pub</name><styleUrl>#ff14b8a6</styleUrl><Point><coordinates>-79.3531000,43.6771740,0</coordinates></Point></Placemark><Placemark><name>The Dog &amp; Bear Pub</name><description>[Saved Places] saved 2018-05-06 · 1100 Queen St W, Toronto, ON M6J 1H9, Canada</description><styleUrl>#fff65c8b</styleUrl><Point><coordinates>-79.4228856,43.6435709,0</coordinates></Point></Placemark><Placemark><name>The Library Specialty Coffee</name><description>[a] [e]</description><styleUrl>#ff14b8a6</styleUrl><Point><coordinates>-79.3908420,43.6543250,0</coordinates></Point></Placemark><Placemark><name>The Only Cafe</name><description>[cozy] [e]</description><styleUrl>#ff14b8a6</styleUrl><Point><coordinates>-79.3378030,43.6804710,0</coordinates></Point></Placemark><Placemark><name>Udupi Palace</name><description>For the full dosa experience.</description><styleUrl>#ff14b8a6</styleUrl><Point><coordinates>-79.3211620,43.6726010,0</coordinates></Point></Placemark><Placemark><name>Versus Coffee</name><description>[a] [e]</description><styleUrl>#ff14b8a6</styleUrl><Point><coordinates>-79.3753340,43.6512540,0</coordinates></Point></Placemark><Placemark><name>White Lily Diner</name><description>[Want to go] 678 Queen St E, Toronto, ON M4M 1G8, Canada</description><styleUrl>#ff1673f9</styleUrl><Point><coordinates>-79.3511779,43.6588111,0</coordinates></Point></Placemark><Placemark><name>Woods Restaurant &amp; Bar</name><styleUrl>#ff14b8a6</styleUrl><Point><coordinates>-79.3750830,43.6489740,0</coordinates></Point></Placemark><Placemark><name>WVRST</name><description>For good sausages (including vegetarian) and beer.</description><styleUrl>#ff14b8a6</styleUrl><Point><coordinates>-79.4007210,43.6441660,0</coordinates></Point></Placemark><Placemark><name>WVRST</name><description>For good sausages (including vegetarian) and beer.</description><styleUrl>#ff14b8a6</styleUrl><Point><coordinates>-79.3812720,43.6449180,0</coordinates></Point></Placemark><Placemark><name>ZEAL Burgers</name><description>[Want to go] 1926 Weston Rd, York, ON M9N 1W2, Canada</description><styleUrl>#ff1673f9</styleUrl><Point><coordinates>-79.5175812,43.7003963,0</coordinates></Point></Placemark><Placemark><name>شاورما حطب و نار Charc Shawarma</name><description>[Want to go] 980 Burnhamthorpe Rd E, Mississauga, ON L4Y 2X6, Canada</description><styleUrl>#ff1673f9</styleUrl><Point><coordinates>-79.6112419,43.6139648,0</coordinates></Point></Placemark></Document></kml>