<?xml version="1.0" encoding="UTF-8"?>
<kml xmlns="http://www.opengis.net/kml/2.2"><Document><name>Chicago, IL</name><Style id="ff1673f9"><IconStyle><color>ff1673f9</color></IconStyle></Style><Style id="fff65c8b"><IconStyle><color>fff65c8b</color></IconStyle></Style><Placemark><name>2301 S Leavitt St</name><description>[Default list] 301 S Leavitt St Unit 1N, Chicago, IL 60612, USA</description><styleUrl>#ff1673f9</styleUrl><Point><coordinates>-87.6811310,41.8774470,0</coordinates></Point></Placemark><Placemark><name>Ada Street</name><description>[Want to go] 1664 N Ada St, Chicago, IL 60642, USA</description><styleUrl>#ff1673f9</styleUrl><Point><coordinates>-87.6623571,41.9125186,0</coordinates></Point></Placemark><Placemark><name>Allez Café</name><description>[Franco Chicago] 2239 N Western Ave, Chicago, IL 60647, USA</description><styleUrl>#ff1673f9</styleUrl><Point><coordinates>-87.6872228,41.9228813,0</coordinates></Point></Placemark><Placemark><name>Armitage Alehouse</name><description>[Franco Chicago] 1000 W Armitage Ave, Chicago, IL 60614, USA</description><styleUrl>#ff1673f9</styleUrl><Point><coordinates>-87.6536000,41.9183532,0</coordinates></Point></Placemark><Placemark><name>Birria Huentitan Restaurant</name><description>[Franco Chicago] The gamy, I love it!!!
4019 W North Ave, Chicago, IL 60639, USA</description><styleUrl>#ff1673f9</styleUrl><Point><coordinates>-87.7272888,41.9097213,0</coordinates></Point></Placemark><Placemark><name>Chicago Sweatlodge</name><description>[Franco Chicago] 3500 N Cicero Ave, Chicago, IL 60641, USA</description><styleUrl>#ff1673f9</styleUrl><Point><coordinates>-87.7472222,41.9444444,0</coordinates></Point></Placemark><Placemark><name>Chiu Quon Bakery</name><description>[Franco Chicago] 2253 S Wentworth Ave, Chicago, IL 60616, USA</description><styleUrl>#ff1673f9</styleUrl><Point><coordinates>-87.6316845,41.8513689,0</coordinates></Point></Placemark><Placemark><name>Chiu Quon Bakery &amp; Dim Sum</name><description>[Want to go] 2253 S Wentworth Ave, Chicago, IL 60616, USA</description><styleUrl>#ff1673f9</styleUrl><Point><coordinates>-87.6316845,41.8513689,0</coordinates></Point></Placemark><Placemark><name>Costera Cocina Tulum</name><description>[Want to go] 850 W Fulton Market, Chicago, IL 60607, USA</description><styleUrl>#ff1673f9</styleUrl><Point><coordinates>-87.6494742,41.8870371,0</coordinates></Point></Placemark><Placemark><name>Crushed By Giants Brewing Company</name><description>[Saved Places] saved 2024-09-22 · 600 N Michigan Ave 2nd Floor, Chicago, IL 60611, United States</description><styleUrl>#fff65c8b</styleUrl><Point><coordinates>-87.6252607,41.8926921,0</coordinates></Point></Placemark><Placemark><name>Dovetail Brewery</name><description>[Saved Places] saved 2024-11-12 · 1800 W Belle Plaine Ave, Chicago, IL 60613, United States</description><styleUrl>#fff65c8b</styleUrl><Point><coordinates>-87.6745423,41.9562547,0</coordinates></Point></Placemark><Placemark><name>Duneyrr Fermenta Winery and Brewery</name><description>[Want to go] 2337 S Michigan Ave Fl 1, Chicago, IL 60616, USA</description><styleUrl>#ff1673f9</styleUrl><Point><coordinates>-87.6235275,41.8499637,0</coordinates></Point></Placemark><Placemark><name>ERIS Brewery and Cider House</name><description>[Saved Places] saved 2026-05-29 · 4240 W Irving Park Rd, Chicago, IL 60641, United States</description><styleUrl>#fff65c8b</styleUrl><Point><coordinates>-87.7341685,41.9538222,0</coordinates></Point></Placemark><Placemark><name>Forbidden Root Restaurant &amp; Brewery</name><description>[Want to go] 1746 W Chicago Ave, Chicago, IL 60622, USA</description><styleUrl>#ff1673f9</styleUrl><Point><coordinates>-87.6715590,41.8962380,0</coordinates></Point></Placemark><Placemark><name>Goose Island Taproom</name><description>[Saved Places] saved 2015-08-05 · 1800 W Fulton St, Chicago, IL 60612, United States</description><styleUrl>#fff65c8b</styleUrl><Point><coordinates>-87.6721414,41.8871139,0</coordinates></Point></Placemark><Placemark><name>Griffin Museum of Science and Industry</name><description>[Saved Places] saved 2015-08-06 · 5700 S DuSable Lake Shore Dr, Chicago, IL 60637, United States</description><styleUrl>#fff65c8b</styleUrl><Point><coordinates>-87.5830659,41.7905726,0</coordinates></Point></Placemark><Placemark><name>Hero Coffee and Bagel Bar</name><description>[Saved Places] saved 2021-12-22 · 22 E Jackson Blvd, Chicago, IL 60604, United States</description><styleUrl>#fff65c8b</styleUrl><Point><coordinates>-87.6268193,41.8784321,0</coordinates></Point></Placemark><Placemark><name>Hop Butcher For The World</name><description>[Saved Places] saved 2026-05-29 · 4257 N Lincoln Ave, Chicago, IL 60618, United States</description><styleUrl>#fff65c8b</styleUrl><Point><coordinates>-87.6820631,41.9593065,0</coordinates></Point></Placemark><Placemark><name>Intelligentsia Coffee Broadway Coffeebar</name><description>[Saved Places] saved 2015-08-05 · 3123 N Broadway, Chicago, IL 60657, United States</description><styleUrl>#fff65c8b</styleUrl><Point><coordinates>-87.6441993,41.9383009,0</coordinates></Point></Placemark><Placemark><name>John's Food and Wine</name><description>[Saved Places] saved 2024-11-12 · 2114 N Halsted St, Chicago, IL 60614, United States</description><styleUrl>#fff65c8b</styleUrl><Point><coordinates>-87.6489219,41.9204421,0</coordinates></Point></Placemark><Placemark><name>Johnnie's Beef</name><description>[Franco Chicago] 7500 W North Ave, Elmwood Park, IL 60707, USA</description><styleUrl>#ff1673f9</styleUrl><Point><coordinates>-87.8133000,41.9089153,0</coordinates></Point></Placemark><Placemark><name>La Autentica Birria Estilo Ocotlan</name><description>[Want to go] 702 Gostlin St, Hammond, IN 46327, USA</description><styleUrl>#ff1673f9</styleUrl><Point><coordinates>-87.5111349,41.6318745,0</coordinates></Point></Placemark><Placemark><name>Local Option</name><description>[Saved Places] saved 2015-08-07 · 1102 W Webster Ave, Chicago, IL 60614, United States</description><styleUrl>#fff65c8b</styleUrl><Point><coordinates>-87.6561712,41.9218855,0</coordinates></Point></Placemark><Placemark><name>Lula Cafe</name><description>[Want to go] 2537 N Kedzie Blvd, Chicago, IL 60647, USA</description><styleUrl>#ff1673f9</styleUrl><Point><coordinates>-87.7067917,41.9276583,0</coordinates></Point></Placemark><Placemark><name>Metric</name><description>[Saved Places] saved 2015-08-05 · 2021 W Fulton St, Chicago, IL 60612, United States</description><styleUrl>#fff65c8b</styleUrl><Point><coordinates>-87.6783000,41.8864901,0</coordinates></Point></Placemark><Placemark><name>Off Color Brewing Taproom The Mousetrap</name><description>[Saved Places] saved 2024-09-26 · 1460 N Kingsbury St, Chicago, IL 60642, United States</description><styleUrl>#fff65c8b</styleUrl><Point><coordinates>-87.6521195,41.9079050,0</coordinates></Point></Placemark><Placemark><name>Old Irving Brewing Co.</name><description>[Saved Places] saved 2023-08-23 · 4419 W Montrose Ave, Chicago, IL 60641, United States</description><styleUrl>#fff65c8b</styleUrl><Point><coordinates>-87.7392662,41.9606659,0</coordinates></Point></Placemark><Placemark><name>Peking Mandarin Restaurant</name><description>[Want to go] 3459 W Lawrence Ave, Chicago, IL 60625, USA</description><styleUrl>#ff1673f9</styleUrl><Point><coordinates>-87.7156819,41.9682190,0</coordinates></Point></Placemark><Placemark><name>Pequod's Pizza</name><description>[Saved Places] saved 2015-08-06 · 2207 N Clybourn Ave, Chicago, IL 60614, United States</description><styleUrl>#fff65c8b</styleUrl><Point><coordinates>-87.6643512,41.9219340,0</coordinates></Point></Placemark><Placemark><name>Pho Delicious Vietnamese Restaurant Chicago IL</name><description>[Want to go] Inside Market Mix Mall, 5033 N Elston Ave Ste 143-144, Chicago, IL 60630, USA</description><styleUrl>#ff1673f9</styleUrl><Point><coordinates>-87.7458054,41.9725576,0</coordinates></Point></Placemark><Placemark><name>Phodega</name><description>[Franco Chicago] 1924 W Division St, Chicago, IL 60622, USA</description><styleUrl>#ff1673f9</styleUrl><Point><coordinates>-87.6758734,41.9034562,0</coordinates></Point></Placemark><Placemark><name>Portillo's &amp; Barnelli's Chicago</name><description>[Saved Places] saved 2015-08-07 · 100 W Ontario St, Chicago, IL 60610, United States</description><styleUrl>#fff65c8b</styleUrl><Point><coordinates>-87.6315393,41.8935110,0</coordinates></Point></Placemark><Placemark><name>Red Square Spa</name><description>[Franco Chicago] 1914 W Division St, Chicago, IL 60622, USA</description><styleUrl>#ff1673f9</styleUrl><Point><coordinates>-87.6755551,41.9034352,0</coordinates></Point></Placemark><Placemark><name>Solemn Oath Brewery</name><description>[Saved Places] saved 2015-08-05 · 1661 Quincy Ave #179, Naperville, IL 60540, United States</description><styleUrl>#fff65c8b</styleUrl><Point><coordinates>-88.1884264,41.7765761,0</coordinates></Point></Placemark><Placemark><name>Spirit of Music Garden in Grant Park</name><description>[Saved Places] saved 2015-08-06 · 601 S Michigan Ave, Chicago, IL 60605, United States</description><styleUrl>#fff65c8b</styleUrl><Point><coordinates>-87.6234970,41.8738195,0</coordinates></Point></Placemark><Placemark><name>Tanoshii Andersonville</name><description>[Saved Places] saved 2024-09-21 · 5547 N Clark St, Chicago, IL 60640, United States</description><styleUrl>#fff65c8b</styleUrl><Point><coordinates>-87.6684306,41.9830944,0</coordinates></Point></Placemark><Placemark><name>Tanta Cocina Peruana</name><description>[Want to go] 118 W Grand Ave, Chicago, IL 60654, USA</description><styleUrl>#ff1673f9</styleUrl><Point><coordinates>-87.6320169,41.8917705,0</coordinates></Point></Placemark><Placemark><name>The Wormhole Coffee</name><description>[Saved Places] saved 2015-08-05 · 1462 N Milwaukee Ave, Chicago, IL 60622, United States</description><styleUrl>#fff65c8b</styleUrl><Point><coordinates>-87.6746028,41.9084133,0</coordinates></Point></Placemark><Placemark><name>Three Dots and a Dash</name><description>[Franco Chicago] 435 N Clark St, Chicago, IL 60654, USA</description><styleUrl>#ff1673f9</styleUrl><Point><coordinates>-87.6307668,41.8903119,0</coordinates></Point></Placemark><Placemark><name>Udupi Palace</name><description>[2025-07 Hantke-Klanderman] 2543 W Devon Ave, Chicago, IL 60659, USA</description><styleUrl>#ff1673f9</styleUrl><Point><coordinates>-87.6940050,41.9974790,0</coordinates></Point></Placemark><Placemark><name>Wildberry Pancakes &amp; Cafe</name><description>[Want to go] 130 E Randolph St, Chicago, IL 60601, USA</description><styleUrl>#ff1673f9</styleUrl><Point><coordinates>-87.6228606,41.8847209,0</coordinates></Point></Placemark></Document></kml>