<?xml version="1.0" encoding="UTF-8"?>
<kml xmlns="http://www.opengis.net/kml/2.2"><Document><name>Indianapolis, IN</name><Style id="ff1673f9"><IconStyle><color>ff1673f9</color></IconStyle></Style><Style id="fff65c8b"><IconStyle><color>fff65c8b</color></IconStyle></Style><Placemark><name>10th Street Diner</name><description>[Want to go] 3301 E 10th St, Indianapolis, IN 46201, USA</description><styleUrl>#ff1673f9</styleUrl><Point><coordinates>-86.1096090,39.7811297,0</coordinates></Point></Placemark><Placemark><name>3 in 1 Restaurant</name><description>[Saved Places] saved 2022-12-01 · 1413 W 86th St, Indianapolis, IN 46260, United States</description><styleUrl>#fff65c8b</styleUrl><Point><coordinates>-86.1849880,39.9109730,0</coordinates></Point></Placemark><Placemark><name>Adel's Gyros Pub &amp; Grill</name><description>[Want to go] 10450 N College Ave, Indianapolis, IN 46280, USA</description><styleUrl>#ff1673f9</styleUrl><Point><coordinates>-86.1463279,39.9395688,0</coordinates></Point></Placemark><Placemark><name>Antojitos Hondureños Tia Vilma</name><description>[Want to go] 5801 Rockville Rd, Indianapolis, IN 46224, USA</description><styleUrl>#ff1673f9</styleUrl><Point><coordinates>-86.2621989,39.7644010,0</coordinates></Point></Placemark><Placemark><name>Aristocrat Pub &amp; Oxford Room</name><description>[Tenderloins] 5212 N College Ave, Indianapolis, IN 46220, USA</description><styleUrl>#ff1673f9</styleUrl><Point><coordinates>-86.1460157,39.8472823,0</coordinates></Point></Placemark><Placemark><name>Best Friends Coffee &amp; Bagels</name><description>[Want to go] 1060 E Main St, Brownsburg, IN 46112, USA</description><styleUrl>#ff1673f9</styleUrl><Point><coordinates>-86.3788375,39.8364639,0</coordinates></Point></Placemark><Placemark><name>Birrieria Iturbidense Broad Ripple</name><description>[Want to go] 825 Broad Ripple Ave, Indianapolis, IN 46220, USA</description><styleUrl>#ff1673f9</styleUrl><Point><coordinates>-86.1442091,39.8695775,0</coordinates></Point></Placemark><Placemark><name>Bosphorus Istanbul Cafe</name><description>[Saved Places] saved 2024-10-17 · 935 S East St, Indianapolis, IN 46225, United States</description><styleUrl>#fff65c8b</styleUrl><Point><coordinates>-86.1493010,39.7545579,0</coordinates></Point></Placemark><Placemark><name>Cammack Station</name><description>[Tenderloins] 9200 W Jackson St, Muncie, IN 47304, USA</description><styleUrl>#ff1673f9</styleUrl><Point><coordinates>-85.4945406,40.2106907,0</coordinates></Point></Placemark><Placemark><name>Chao Vietnamese Street Food</name><description>[Saved Places] saved 2025-12-30 · 7854 E 96th St, Fishers, IN 46037, United States</description><styleUrl>#fff65c8b</styleUrl><Point><coordinates>-86.0241170,39.9282320,0</coordinates></Point></Placemark><Placemark><name>Che Chori</name><description>[Saved Places] saved 2022-09-14 · 3124 W 16th St, Indianapolis, IN 46222, United States</description><styleUrl>#fff65c8b</styleUrl><Point><coordinates>-86.2117128,39.7881544,0</coordinates></Point></Placemark><Placemark><name>Cheeky Bastards Restaurant</name><description>[Full English] 11210 Fall Creek Rd, Indianapolis, IN 46256, USA</description><styleUrl>#ff1673f9</styleUrl><Point><coordinates>-85.9512715,39.9348684,0</coordinates></Point></Placemark><Placemark><name>Chris' Ice Cream and Mexican Food</name><description>[Want to go] 1484 E 86th St, Indianapolis, IN 46240, USA</description><styleUrl>#ff1673f9</styleUrl><Point><coordinates>-86.1344298,39.9139011,0</coordinates></Point></Placemark><Placemark><name>Dawson's On Main</name><description>[Tenderloins] 1464 N Main St, Indianapolis, IN 46224, USA</description><styleUrl>#ff1673f9</styleUrl><Point><coordinates>-86.2412613,39.7861302,0</coordinates></Point></Placemark><Placemark><name>Don Juan V's Peruvian Sandwiches</name><description>[Want to go] 3720 E Raymond St, Indianapolis, IN 46203, USA</description><styleUrl>#ff1673f9</styleUrl><Point><coordinates>-86.1031460,39.7384879,0</coordinates></Point></Placemark><Placemark><name>Edinburgh Diner</name><description>[Tenderloins] 413 S Eisenhower Dr, Edinburgh, IN 46124, USA</description><styleUrl>#ff1673f9</styleUrl><Point><coordinates>-85.9715215,39.3514394,0</coordinates></Point></Placemark><Placemark><name>Flowing Well Park</name><description>[Want to go] 5100 E 116th St, Carmel, IN 46033, USA</description><styleUrl>#ff1673f9</styleUrl><Point><coordinates>-86.0839348,39.9570292,0</coordinates></Point></Placemark><Placemark><name>Gnaw Mart</name><description>[Tenderloins] 4947 IN-46, Nashville, IN 47448, USA</description><styleUrl>#ff1673f9</styleUrl><Point><coordinates>-86.1562007,39.1905520,0</coordinates></Point></Placemark><Placemark><name>Happiness</name><description>[Want to go] 5905 E 82nd St, Indianapolis, IN 46250, USA</description><styleUrl>#ff1673f9</styleUrl><Point><coordinates>-86.0667799,39.9046652,0</coordinates></Point></Placemark><Placemark><name>Havana Cafe</name><description>[Want to go] 3839 Moller Rd, Indianapolis, IN 46254, USA</description><styleUrl>#ff1673f9</styleUrl><Point><coordinates>-86.2556401,39.8250569,0</coordinates></Point></Placemark><Placemark><name>Jamaican Breeze Sports Bar &amp; Grill</name><description>[Want to go] 4189 N Keystone Ave, Indianapolis, IN 46205, USA</description><styleUrl>#ff1673f9</styleUrl><Point><coordinates>-86.1212085,39.8326071,0</coordinates></Point></Placemark><Placemark><name>JAWDI GRILL</name><description>[Want to go] 1950 E Greyhound Pass Ste 19, Carmel, IN 46033, USA</description><styleUrl>#ff1673f9</styleUrl><Point><coordinates>-86.1243065,40.0043884,0</coordinates></Point></Placemark><Placemark><name>John's Famous Stew</name><description>[Want to go] 1146 Kentucky Ave, Indianapolis, IN 46221, USA</description><styleUrl>#ff1673f9</styleUrl><Point><coordinates>-86.1778670,39.7526208,0</coordinates></Point></Placemark><Placemark><name>Julieta Taco Shop</name><description>[Want to go] 1060 N Capitol Ave Ste 1-103, Indianapolis, IN 46204, USA</description><styleUrl>#ff1673f9</styleUrl><Point><coordinates>-86.1618546,39.7813034,0</coordinates></Point></Placemark><Placemark><name>Kabarna's Grill and Galleria</name><description>[Want to go] 3832 Eagle View Dr, Indianapolis, IN 46254, USA</description><styleUrl>#ff1673f9</styleUrl><Point><coordinates>-86.2795474,39.8241487,0</coordinates></Point></Placemark><Placemark><name>Kimu Restaurant</name><description>[Want to go] 1280 U.S. Hwy 31 N, Greenwood, IN 46142, USA</description><styleUrl>#ff1673f9</styleUrl><Point><coordinates>-86.1270672,39.6347968,0</coordinates></Point></Placemark><Placemark><name>King Wok</name><description>[Saved Places] saved 2026-01-05 · 4150 Lafayette Rd D, Indianapolis, IN 46254, United States</description><styleUrl>#fff65c8b</styleUrl><Point><coordinates>-86.2423621,39.8304016,0</coordinates></Point></Placemark><Placemark><name>Kountry Kitchen</name><description>[Fried Chicken Sandos] 1831 N College Ave, Indianapolis, IN 46202, USA</description><styleUrl>#ff1673f9</styleUrl><Point><coordinates>-86.1445300,39.7919303,0</coordinates></Point></Placemark><Placemark><name>Kuma's Corner</name><description>[Fried Chicken Sandos] The "Sourvein"
1127 Prospect St, Indianapolis, IN 46203, USA</description><styleUrl>#ff1673f9</styleUrl><Point><coordinates>-86.1387800,39.7521800,0</coordinates></Point></Placemark><Placemark><name>Lumpy's Restaurant</name><description>[Tenderloins] 20 N Foote St, Cambridge City, IN 47327, USA</description><styleUrl>#ff1673f9</styleUrl><Point><coordinates>-85.1714616,39.8118728,0</coordinates></Point></Placemark><Placemark><name>Ma Ma's Korean Restaurant</name><description>[Saved Places] saved 2025-11-11 · 8867 Pendleton Pike, Indianapolis, IN 46226, United States</description><styleUrl>#fff65c8b</styleUrl><Point><coordinates>-86.0122968,39.8427000,0</coordinates></Point></Placemark><Placemark><name>Moar Tea</name><description>[Saved Places] saved 2025-10-31 · 448 Massachusetts Ave, Indianapolis, IN 46204, United States</description><styleUrl>#fff65c8b</styleUrl><Point><coordinates>-86.1514141,39.7735620,0</coordinates></Point></Placemark><Placemark><name>Mr Gyro's</name><description>[Saved Places] saved 2026-03-30 · 5358 W 38th St, Indianapolis, IN 46254, United States</description><styleUrl>#fff65c8b</styleUrl><Point><coordinates>-86.2533551,39.8242290,0</coordinates></Point></Placemark><Placemark><name>Mr. Shawarma</name><description>[Want to go] 7035 E 96th St, Indianapolis, IN 46250, USA</description><styleUrl>#ff1673f9</styleUrl><Point><coordinates>-86.0449936,39.9264942,0</coordinates></Point></Placemark><Placemark><name>Muldoon's on Main</name><description>[Tenderloins] Really big, but kind of ok
111 W Main St, Carmel, IN 46032, USA</description><styleUrl>#ff1673f9</styleUrl><Point><coordinates>-86.1285584,39.9782332,0</coordinates></Point></Placemark><Placemark><name>Natural State Provisions</name><description>[Fried Chicken Sandos] 414 Dorman St, Indianapolis, IN 46202, USA</description><styleUrl>#ff1673f9</styleUrl><Point><coordinates>-86.1386608,39.7727753,0</coordinates></Point></Placemark><Placemark><name>Oasis Diner</name><description>[Saved Places] saved 2026-06-12 · 405 W Main St, Plainfield, IN 46168, United States</description><styleUrl>#fff65c8b</styleUrl><Point><coordinates>-86.4051885,39.7018816,0</coordinates></Point></Placemark><Placemark><name>Patties of Jamaica</name><description>[Want to go] 5172 Allisonville Rd, Indianapolis, IN 46205, USA</description><styleUrl>#ff1673f9</styleUrl><Point><coordinates>-86.1121907,39.8470251,0</coordinates></Point></Placemark><Placemark><name>Perillo'sPizzeria</name><description>[Want to go] 5 S Broadway St, North Salem, IN 46165, USA</description><styleUrl>#ff1673f9</styleUrl><Point><coordinates>-86.6436180,39.8594290,0</coordinates></Point></Placemark><Placemark><name>Picks</name><description>[Want to go] 3810 E 82nd St, Indianapolis, IN 46240, USA</description><styleUrl>#ff1673f9</styleUrl><Point><coordinates>-86.1008937,39.9103992,0</coordinates></Point></Placemark><Placemark><name>Platanos Venezuelan Food</name><description>[Want to go] 2375 Pleasant St, Noblesville, IN 46060, USA</description><styleUrl>#ff1673f9</styleUrl><Point><coordinates>-85.9969245,40.0388102,0</coordinates></Point></Placemark><Placemark><name>Red Lion Grog House</name><description>[Saved Places] saved 2026-02-16 · 1043 Virginia Ave, Indianapolis, IN 46203, United States</description><styleUrl>#fff65c8b</styleUrl><Point><coordinates>-86.1405081,39.7524906,0</coordinates></Point></Placemark><Placemark><name>Sakura</name><description>[Saved Places] saved 2025-11-15 · 7201 N Keystone Ave, Indianapolis, IN 46240, United States</description><styleUrl>#fff65c8b</styleUrl><Point><coordinates>-86.1215795,39.8843754,0</coordinates></Point></Placemark><Placemark><name>Shell</name><description>[Want to go] 2701 Lafayette Rd, Indianapolis, IN 46222, USA</description><styleUrl>#ff1673f9</styleUrl><Point><coordinates>-86.2163200,39.8057400,0</coordinates></Point></Placemark><Placemark><name>Steer-In</name><description>[Tenderloins] 5130 E 10th St, Indianapolis, IN 46219, USA</description><styleUrl>#ff1673f9</styleUrl><Point><coordinates>-86.0823971,39.7818101,0</coordinates></Point></Placemark><Placemark><name>Subito</name><description>[Saved Places] saved 2022-12-07 · 34 N Delaware St, Indianapolis, IN 46204, United States</description><styleUrl>#fff65c8b</styleUrl><Point><coordinates>-86.1546315,39.7679983,0</coordinates></Point></Placemark><Placemark><name>The Eagle Mass Ave</name><description>[Fried Chicken Sandos] Order the Fried Chicken Breast (or a full half-chicken) and a side of their spoonbread, then build your own perfect bites with their signature spicy hot honey.
310 Massachusetts Ave, Indianapolis, IN 46204, USA</description><styleUrl>#ff1673f9</styleUrl><Point><coordinates>-86.1539722,39.7718129,0</coordinates></Point></Placemark><Placemark><name>The Willard</name><description>[Tenderloins] 99 N Main St, Franklin, IN 46131, USA</description><styleUrl>#ff1673f9</styleUrl><Point><coordinates>-86.0550000,39.4813889,0</coordinates></Point></Placemark><Placemark><name>Traders Point Collection Facility</name><description>[Saved Places] saved 2023-10-07 · 7550 Lafayette Rd, Indianapolis, IN 46278, United States</description><styleUrl>#fff65c8b</styleUrl><Point><coordinates>-86.3013373,39.8888612,0</coordinates></Point></Placemark><Placemark><name>Yaso Jamaican Grill</name><description>[Want to go] 1501 Prospect St, Indianapolis, IN 46203, USA</description><styleUrl>#ff1673f9</styleUrl><Point><coordinates>-86.1335423,39.7520232,0</coordinates></Point></Placemark></Document></kml>